<?xml version="1.0" encoding="UTF-8" standalone="yes"?>
<ndm>
    <oem id="CCSDS_OEM_VERS" version="2.0">
        <header>
            <CREATION_DATE>2025-057T18:18:07.830Z</CREATION_DATE>
            <ORIGINATOR>JSC</ORIGINATOR>
        </header>
        <body>
            <segment>
                <metadata>
                    <OBJECT_NAME>ISS</OBJECT_NAME>
                    <OBJECT_ID>1998-067-A</OBJECT_ID>
                    <CENTER_NAME>EARTH</CENTER_NAME>
                    <REF_FRAME>EME2000</REF_FRAME>
                    <TIME_SYSTEM>UTC</TIME_SYSTEM>
                    <START_TIME>2025-057T12:00:00.000Z</START_TIME>
                    <STOP_TIME>2025-072T12:00:00.000Z</STOP_TIME>
                </metadata>
                <data>
                    <COMMENT>Units are in kg and m^2</COMMENT>
                    <COMMENT>MASS=454339.00</COMMENT>
                    <COMMENT>DRAG_AREA=1791.90</COMMENT>
                    <COMMENT>DRAG_COEFF=1.95</COMMENT>
                    <COMMENT>SOLAR_RAD_AREA=0.00</COMMENT>
                    <COMMENT>SOLAR_RAD_COEFF=0.00</COMMENT>
                    <COMMENT>Orbits start at the ascending node epoch </COMMENT>
                    <COMMENT>ISS first asc. node: EPOCH = 2025-02-26T13:00:51.921 $ ORBIT = 1800 $ LAN(DEG) = 143.20256</COMMENT>
                    <COMMENT>ISS last asc. node : EPOCH = 2025-03-13T10:30:18.047 $ ORBIT = 2031 $ LAN(DEG) = 92.38517</COMMENT>
                    <COMMENT>Begin sequence of events</COMMENT>
                    <COMMENT>TRAJECTORY EVENT SUMMARY:</COMMENT>
                    <COMMENT></COMMENT>
                    <COMMENT>|       EVENT        |       TIG        | ORB |   DV    |   HA    |   HP    |</COMMENT>
                    <COMMENT>|                    |       GMT        |     |   M/S   |   KM    |   KM    |</COMMENT>
                    <COMMENT>|                    |                  |     |  (F/S)  |  (NM)   |  (NM)   |</COMMENT>
                    <COMMENT>=============================================================================</COMMENT>
                    <COMMENT> 91P Launch            058:21:24:27.000             0.0     422.7     412.9</COMMENT>
                    <COMMENT>                                                   (0.0)   (228.2)   (223.0)</COMMENT>
                    <COMMENT></COMMENT>
                    <COMMENT> 91P Dock              060:23:03:50.000             0.0     422.9     412.1</COMMENT>
                    <COMMENT>                                                   (0.0)   (228.4)   (222.5)</COMMENT>
                    <COMMENT></COMMENT>
                    <COMMENT> Crew10 Launch         071:23:48:54.000             0.0     424.3     408.4</COMMENT>
                    <COMMENT>                                                   (0.0)   (229.1)   (220.5)</COMMENT>
                    <COMMENT></COMMENT>
                    <COMMENT> Crew10 Dock           072:11:54:54.000             0.0     424.6     408.1</COMMENT>
                    <COMMENT>                                                   (0.0)   (229.3)   (220.3)</COMMENT>
                    <COMMENT></COMMENT>
                    <COMMENT>=============================================================================</COMMENT>
                    <COMMENT>End sequence of events</COMMENT>
                    <stateVector>
                        <EPOCH>2025-059T12:44:27.000Z</EPOCH>
                        <X units="km">1009.55970945723</X>
                        <Y units="km">4901.8164512965204</Y>
                        <Z units="km">-4598.7842849005801</Z>
                        <X_DOT units="km/s">-5.74097674251201</X_DOT>
                        <Y_DOT units="km/s">4.04209033294834</Y_DOT>
                        <Z_DOT units="km/s">3.0531676578576898</Z_DOT>
                    </stateVector>
                    <stateVector>
                        <EPOCH>2025-059T12:48:27.000Z</EPOCH>
                        <X units="km">-388.19552425739801</X>
                        <Y units="km">5682.2610060345396</Y>
                        <Z units="km">-3707.57396749187</Z>
                        <X_DOT units="km/s">-5.8360244574269604</X_DOT>
                        <Y_DOT units="km/s">2.4215863130579498</Y_DOT>
                        <Z_DOT units="km/s">4.3285085295322299</Z_DOT>
                    </stateVector>
                    <stateVector>
                        <EPOCH>2025-059T12:52:27.000Z</EPOCH>
                        <X units="km">-1757.71887772731</X>
                        <Y units="km">6049.8640929661597</Y>
                        <Z units="km">-2546.25351428776</Z>
                        <X_DOT units="km/s">-5.5069412625043297</X_DOT>
                        <Y_DOT units="km/s">0.62262583764727997</Y_DOT>
                        <Z_DOT units="km/s">5.2901738558658904</Z_DOT>
                    </stateVector>
                    <stateVector>
                        <EPOCH>2025-059T12:56:27.000Z</EPOCH>
                        <X units="km">-2999.3389162877002</X>
                        <Y units="km">5977.2862243093496</Y>
                        <Z units="km">-1199.1581717574099</Z>
                        <X_DOT units="km/s">-4.7765073450402902</X_DOT>
                        <Y_DOT units="km/s">-1.2241175359696801</Y_DOT>
                        <Z_DOT units="km/s">5.8669327888449496</Z_DOT>
                    </stateVector>
                    <stateVector>
                        <EPOCH>2025-059T13:00:27.000Z</EPOCH>
                        <X units="km">-4022.4694731140198</X>
                        <Y units="km">5469.3018693355198</Y>
                        <Z units="km">235.530943671176</Z>
                        <X_DOT units="km/s">-3.69730038918006</X_DOT>
                        <Y_DOT units="km/s">-2.9833845457180801</Y_DOT>
                        <Z_DOT units="km/s">6.0154713698289903</Z_DOT>
                    </stateVector>
                    <stateVector>
                        <EPOCH>2025-059T13:04:27.000Z</EPOCH>
                        <X units="km">-4752.3975994821103</X>
                        <Y units="km">4562.6575429935301</Y>
                        <Z units="km">1652.99924732248</Z>
                        <X_DOT units="km/s">-2.3482088323089298</X_DOT>
                        <Y_DOT units="km/s">-4.5257480685121001</Y_DOT>
                        <Z_DOT units="km/s">5.7242695432862503</Z_DOT>
                    </stateVector>
                    <stateVector>
                        <EPOCH>2025-059T13:08:27.000Z</EPOCH>
                        <X units="km">-5135.9144884438701</X>
                        <Y units="km">3323.4294374695201</Y>
                        <Z units="km">2949.6349915453102</Z>
                        <X_DOT units="km/s">-0.82835018225153001</X_DOT>
                        <Y_DOT units="km/s">-5.7378618844683604</Y_DOT>
                        <Z_DOT units="km/s">5.0147953203929996</Z_DOT>
                    </stateVector>
                    <stateVector>
                        <EPOCH>2025-059T13:12:27.000Z</EPOCH>
                        <X units="km">-5145.2589460807703</X>
                        <Y units="km">1842.0680043902601</Y>
                        <Z units="km">4030.7720492732301</Z>
                        <X_DOT units="km/s">0.75071887379330005</X_DOT>
                        <Y_DOT units="km/s">-6.5312315191565702</Y_DOT>
                        <Z_DOT units="km/s">3.9396076533870099</Z_DOT>
                    </stateVector>
                    <stateVector>
                        <EPOCH>2025-059T13:16:27.000Z</EPOCH>
                        <X units="km">-4780.0703850434802</X>
                        <Y units="km">226.6056466954</Y>
                        <Z units="km">4817.6779773221997</Z>
                        <X_DOT units="km/s">2.27368918705087</X_DOT>
                        <Y_DOT units="km/s">-6.8486848492739103</Y_DOT>
                        <Z_DOT units="km/s">2.5779957362916099</Z_DOT>
                    </stateVector>
                    <stateVector>
                        <EPOCH>2025-059T13:20:27.000Z</EPOCH>
                        <X units="km">-4067.2507773890602</X>
                        <Y units="km">-1405.3536399311699</Y>
                        <Z units="km">5253.2355279189396</Z>
                        <X_DOT units="km/s">3.6300491138536599</X_DOT>
                        <Y_DOT units="km/s">-6.6680080767603904</Y_DOT>
                        <Z_DOT units="km/s">1.02964007224848</Z_DOT>
                    </stateVector>
                    <stateVector>
                        <EPOCH>2025-059T13:24:27.000Z</EPOCH>
                        <X units="km">-3058.86459437959</X>
                        <Y units="km">-2935.19765316753</Y>
                        <Z units="km">5305.9685878317696</Z>
                        <X_DOT units="km/s">4.7218348538383399</X_DOT>
                        <Y_DOT units="km/s">-6.0029941043054604</Y_DOT>
                        <Z_DOT units="km/s">-0.59275715164655995</Z_DOT>
                    </stateVector>
                    <stateVector>
                        <EPOCH>2025-059T13:28:27.000Z</EPOCH>
                        <X units="km">-1828.29532251212</X>
                        <Y units="km">-4251.8428129274298</Y>
                        <Z units="km">4972.2090449896205</Z>
                        <X_DOT units="km/s">5.4703796538510696</X_DOT>
                        <Y_DOT units="km/s">-4.9021706581441302</Y_DOT>
                        <Z_DOT units="km/s">-2.1715542953914402</Z_DOT>
                    </stateVector>
                    
                </data>
            </segment>
        </body>
    </oem>
</ndm>
